{
  "type": "FeatureCollection",
  "features": [
    {
      "type": "Feature",
      "properties": {
        "norad_id": 34056,
        "name": "COSMOS 2251 DEB",
        "group": "cosmos-2251-debris",
        "lat": -39.0046303878966,
        "lon": 59.883193329462074,
        "alt_km": 914.1621678375432,
        "timestamp": "2025-12-14T11:29:50.453943+00:00",
        "meta_object_name": "COSMOS 2251 DEB",
        "meta_object_id": "1993-036JT",
        "meta_epoch": "2025-12-13T16:06:36.823392",
        "meta_mean_motion": 14.20561991,
        "meta_eccentricity": 0.01241022,
        "meta_inclination": 74.0593,
        "meta_ra_of_asc_node": 74.7113,
        "meta_arg_of_pericenter": 122.2983,
        "meta_mean_anomaly": 27.905,
        "meta_ephemeris_type": 0,
        "meta_classification_type": "U",
        "meta_norad_cat_id": 34056,
        "meta_element_set_no": 999,
        "meta_rev_at_epoch": 86424,
        "meta_bstar": 0.0012225202,
        "meta_mean_motion_dot": 2.817e-05,
        "meta_mean_motion_ddot": 0,
        "tle_line1": "1 34056U 93036JT  25347.67125953  .00002817  00000+0  12225-2 0  9999",
        "tle_line2": "2 34056  74.0593  74.7113 0124102 122.2983  27.9050 14.20561991864243"
      },
      "geometry": {
        "type": "Point",
        "coordinates": [
          59.883193329462074,
          -39.0046303878966
        ]
      }
    },
    {
      "type": "Feature",
      "properties": {
        "norad_id": 34058,
        "name": "COSMOS 2251 DEB",
        "group": "cosmos-2251-debris",
        "lat": 58.9438278393177,
        "lon": -156.11202236860396,
        "alt_km": 1116.6083775315383,
        "timestamp": "2025-12-14T11:29:50.453953+00:00",
        "meta_object_name": "COSMOS 2251 DEB",
        "meta_object_id": "1993-036JV",
        "meta_epoch": "2025-12-13T16:04:09.576192",
        "meta_mean_motion": 13.56077636,
        "meta_eccentricity": 0.03779024,
        "meta_inclination": 73.9314,
        "meta_ra_of_asc_node": 176.6054,
        "meta_arg_of_pericenter": 171.6668,
        "meta_mean_anomaly": 265.1957,
        "meta_ephemeris_type": 0,
        "meta_classification_type": "U",
        "meta_norad_cat_id": 34058,
        "meta_element_set_no": 999,
        "meta_rev_at_epoch": 83155,
        "meta_bstar": 0.00092246076,
        "meta_mean_motion_dot": 1.003e-05,
        "meta_mean_motion_ddot": 0,
        "tle_line1": "1 34058U 93036JV  25347.66955528  .00001003  00000+0  92246-3 0  9997",
        "tle_line2": "2 34058  73.9314 176.6054 0377902 171.6668 265.1957 13.56077636831552"
      },
      "geometry": {
        "type": "Point",
        "coordinates": [
          -156.11202236860396,
          58.9438278393177
        ]
      }
    },
    {
      "type": "Feature",
      "properties": {
        "norad_id": 34059,
        "name": "COSMOS 2251 DEB",
        "group": "cosmos-2251-debris",
        "lat": 5.892266140112237,
        "lon": 1.303164048942579,
        "alt_km": 716.9155878734937,
        "timestamp": "2025-12-14T11:29:50.453963+00:00",
        "meta_object_name": "COSMOS 2251 DEB",
        "meta_object_id": "1993-036JW",
        "meta_epoch": "2025-12-13T13:32:23.952768",
        "meta_mean_motion": 14.52954487,
        "meta_eccentricity": 0.00186303,
        "meta_inclination": 74.0375,
        "meta_ra_of_asc_node": 184.7212,
        "meta_arg_of_pericenter": 261.8825,
        "meta_mean_anomaly": 168.5723,
        "meta_ephemeris_type": 0,
        "meta_classification_type": "U",
        "meta_norad_cat_id": 34059,
        "meta_element_set_no": 999,
        "meta_rev_at_epoch": 88471,
        "meta_bstar": 0.00098049742,
        "meta_mean_motion_dot": 4.025e-05,
        "meta_mean_motion_ddot": 0,
        "tle_line1": "1 34059U 93036JW  25347.56416612  .00004025  00000+0  98050-3 0  9999",
        "tle_line2": "2 34059  74.0375 184.7212 0018630 261.8825 168.5723 14.52954487884713"
      },
      "geometry": {
        "type": "Point",
        "coordinates": [
          1.303164048942579,
          5.892266140112237
        ]
      }
    },
    {
      "type": "Feature",
      "properties": {
        "norad_id": 34061,
        "name": "COSMOS 2251 DEB",
        "group": "cosmos-2251-debris",
        "lat": 72.35219226434675,
        "lon": -35.72277682286876,
        "alt_km": 753.9363189080741,
        "timestamp": "2025-12-14T11:29:50.453988+00:00",
        "meta_object_name": "COSMOS 2251 DEB",
        "meta_object_id": "1993-036JY",
        "meta_epoch": "2025-12-13T12:34:47.881056",
        "meta_mean_motion": 14.40360811,
        "meta_eccentricity": 0.00205632,
        "meta_inclination": 74.0393,
        "meta_ra_of_asc_node": 261.9391,
        "meta_arg_of_pericenter": 338.6715,
        "meta_mean_anomaly": 194.1059,
        "meta_ephemeris_type": 0,
        "meta_classification_type": "U",
        "meta_norad_cat_id": 34061,
        "meta_element_set_no": 999,
        "meta_rev_at_epoch": 88191,
        "meta_bstar": 0.00053646601,
        "meta_mean_motion_dot": 1.68e-05,
        "meta_mean_motion_ddot": 0,
        "tle_line1": "1 34061U 93036JY  25347.52416529  .00001680  00000+0  53647-3 0  9992",
        "tle_line2": "2 34061  74.0393 261.9391 0020563 338.6715 194.1059 14.40360811881916"
      },
      "geometry": {
        "type": "Point",
        "coordinates": [
          -35.72277682286876,
          72.35219226434675
        ]
      }
    },
    {
      "type": "Feature",
      "properties": {
        "norad_id": 34062,
        "name": "COSMOS 2251 DEB",
        "group": "cosmos-2251-debris",
        "lat": 72.06303812621508,
        "lon": -163.15818796236562,
        "alt_km": 660.4084396930366,
        "timestamp": "2025-12-14T11:29:50.454001+00:00",
        "meta_object_name": "COSMOS 2251 DEB",
        "meta_object_id": "1993-036JZ",
        "meta_epoch": "2025-12-13T12:43:17.957280",
        "meta_mean_motion": 14.78713267,
        "meta_eccentricity": 0.00745306,
        "meta_inclination": 74.0279,
        "meta_ra_of_asc_node": 136.4815,
        "meta_arg_of_pericenter": 215.4576,
        "meta_mean_anomaly": 217.1741,
        "meta_ephemeris_type": 0,
        "meta_classification_type": "U",
        "meta_norad_cat_id": 34062,
        "meta_element_set_no": 999,
        "meta_rev_at_epoch": 88607,
        "meta_bstar": 0.0030847258,
        "meta_mean_motion_dot": 0.00023767,
        "meta_mean_motion_ddot": 0,
        "tle_line1": "1 34062U 93036JZ  25347.53006895  .00023767  00000+0  30847-2 0  9991",
        "tle_line2": "2 34062  74.0279 136.4815 0074530 215.4576 217.1741 14.78713267886071"
      },
      "geometry": {
        "type": "Point",
        "coordinates": [
          -163.15818796236562,
          72.06303812621508
        ]
      }
    },
    {
      "type": "Feature",
      "properties": {
        "norad_id": 34064,
        "name": "COSMOS 2251 DEB",
        "group": "cosmos-2251-debris",
        "lat": 63.359234962061,
        "lon": -57.55627040841264,
        "alt_km": 745.4812597268738,
        "timestamp": "2025-12-14T11:29:50.454011+00:00",
        "meta_object_name": "COSMOS 2251 DEB",
        "meta_object_id": "1993-036KB",
        "meta_epoch": "2025-12-13T12:41:49.844832",
        "meta_mean_motion": 14.42343953,
        "meta_eccentricity": 0.00221458,
        "meta_inclination": 74.0327,
        "meta_ra_of_asc_node": 269.4035,
        "meta_arg_of_pericenter": 335.6997,
        "meta_mean_anomaly": 201.6145,
        "meta_ephemeris_type": 0,
        "meta_classification_type": "U",
        "meta_norad_cat_id": 34064,
        "meta_element_set_no": 999,
        "meta_rev_at_epoch": 88153,
        "meta_bstar": 0.00087791067,
        "meta_mean_motion_dot": 2.883e-05,
        "meta_mean_motion_ddot": 0,
        "tle_line1": "1 34064U 93036KB  25347.52904913  .00002883  00000+0  87791-3 0  9997",
        "tle_line2": "2 34064  74.0327 269.4035 0022145 335.6997 201.6145 14.42343953881539"
      },
      "geometry": {
        "type": "Point",
        "coordinates": [
          -57.55627040841264,
          63.359234962061
        ]
      }
    },
    {
      "type": "Feature",
      "properties": {
        "norad_id": 34065,
        "name": "COSMOS 2251 DEB",
        "group": "cosmos-2251-debris",
        "lat": 51.73963605129552,
        "lon": -83.79894322033088,
        "alt_km": 754.3476210872814,
        "timestamp": "2025-12-14T11:29:50.454021+00:00",
        "meta_object_name": "COSMOS 2251 DEB",
        "meta_object_id": "1993-036KC",
        "meta_epoch": "2025-12-13T12:40:37.355232",
        "meta_mean_motion": 14.38064281,
        "meta_eccentricity": 0.00164238,
        "meta_inclination": 74.0357,
        "meta_ra_of_asc_node": 256.6685,
        "meta_arg_of_pericenter": 354.0715,
        "meta_mean_anomaly": 180.0034,
        "meta_ephemeris_type": 0,
        "meta_classification_type": "U",
        "meta_norad_cat_id": 34065,
        "meta_element_set_no": 999,
        "meta_rev_at_epoch": 88216,
        "meta_bstar": 0.00026513124,
        "meta_mean_motion_dot": 7.78e-06,
        "meta_mean_motion_ddot": 0,
        "tle_line1": "1 34065U 93036KC  25347.52821013  .00000778  00000+0  26513-3 0  9993",
        "tle_line2": "2 34065  74.0357 256.6685 0016423 354.0715 180.0034 14.38064281882163"
      },
      "geometry": {
        "type": "Point",
        "coordinates": [
          -83.79894322033088,
          51.73963605129552
        ]
      }
    }
  ]
}